OBJECT_NAME,OBJECT_ID,EPOCH,MEAN_MOTION,ECCENTRICITY,INCLINATION,RA_OF_ASC_NODE,ARG_OF_PERICENTER,MEAN_ANOMALY,EPHEMERIS_TYPE,CLASSIFICATION_TYPE,NORAD_CAT_ID,ELEMENT_SET_NO,REV_AT_EPOCH,BSTAR,MEAN_MOTION_DOT,MEAN_MOTION_DDOT
IRIDIUM 138,2017-083B,2026-06-14T15:57:59.092128,14.34218288,.0002339,86.3975,322.7650,86.6816,273.4647,0,U,43071,999,44377,.12205E-4,.54E-6,0
IRIDIUM 116,2017-083C,2026-06-14T20:13:43.117824,14.34217887,.0001934,86.3961,322.9816,97.4864,262.6552,0,U,43072,999,44383,.74592E-5,.41E-6,0
IRIDIUM 130,2017-083D,2026-06-14T16:07:07.104864,14.34217388,.0001806,86.3968,323.3285,90.8842,269.2561,0,U,43073,999,44375,-.86601E-5,-.4E-7,0
IRIDIUM 151,2017-083E,2026-06-14T20:31:59.170944,14.34217715,.0002147,86.3963,323.0340,92.5295,267.6147,0,U,43074,999,44380,.27E-5,.27E-6,0
IRIDIUM 134,2017-083F,2026-06-14T19:46:19.108128,14.34218031,.000209,86.3965,323.0553,90.6186,269.5249,0,U,43075,999,44376,.92367E-5,.46E-6,0
IRIDIUM 137,2017-083G,2026-06-14T20:04:35.143968,14.34217898,.0002193,86.3967,323.1427,103.7919,256.3521,0,U,43076,999,44383,.82317E-5,.43E-6,0
IRIDIUM 141,2017-083H,2026-06-14T19:55:27.164928,14.34217732,.0002208,86.3960,322.9761,90.9194,269.2255,0,U,43077,999,44383,-.63155E-6,.18E-6,0
IRIDIUM 153,2017-083J,2026-06-14T20:27:03.441024,14.34217706,.0002281,86.3958,291.4472,90.0877,270.0580,0,U,43078,999,44494,.13164E-5,.23E-6,0
IRIDIUM 131,2017-083K,2026-06-14T19:37:11.055648,14.34218662,.0002212,86.3967,323.1673,92.1714,267.9735,0,U,43079,999,44376,.35113E-4,.118E-5,0
IRIDIUM 144,2018-030A,2026-06-14T20:36:11.303424,14.34218316,.0002098,86.3957,291.3738,96.3021,263.8414,0,U,43249,999,42980,.21513E-4,.8E-6,0
IRIDIUM 149,2018-030B,2026-06-14T20:45:19.433664,14.34217389,.0002128,86.3953,291.3383,93.5567,266.5872,0,U,43250,999,42982,-.12277E-4,-.15E-6,0
IRIDIUM 157,2018-030C,2026-06-14T19:32:15.412128,14.34217697,.0002193,86.3957,291.4124,93.9372,266.2075,0,U,43251,999,42979,-.17838E-5,.15E-6,0
IRIDIUM 140,2018-030D,2026-06-14T19:59:39.419232,14.34217603,.0002137,86.3957,291.4170,93.0162,267.1278,0,U,43252,999,42985,-.14204E-5,.16E-6,0
IRIDIUM 145,2018-030E,2026-06-14T19:41:23.364384,14.34217651,.0001954,86.3956,291.3946,100.1476,259.9940,0,U,43253,999,42978,.13663E-4,.58E-6,0
IRIDIUM 146,2018-030F,2026-06-14T14:12:35.400096,14.34217727,.0002097,86.3957,291.5024,96.3281,263.8154,0,U,43254,999,42976,.17174E-5,.25E-6,0
IRIDIUM 148,2018-030G,2026-06-14T20:08:47.438016,14.34217825,.0002246,86.3958,291.4420,96.7150,263.4302,0,U,43255,999,42983,.11652E-4,.52E-6,0
IRIDIUM 142,2018-030H,2026-06-14T14:21:43.348032,14.34218067,.0002068,86.3953,291.4318,97.7361,262.4070,0,U,43256,999,42976,.503E-4,.161E-5,0
IRIDIUM 150,2018-030J,2026-06-14T20:17:55.424832,14.34217566,.0002135,86.3957,291.4446,93.3988,266.7452,0,U,43257,999,42982,-.35335E-5,.1E-6,0
IRIDIUM 143,2018-030K,2026-06-14T19:50:31.380576,14.34217497,.0002059,86.3961,291.5450,95.7652,264.3778,0,U,43258,999,42975,.34243E-4,.116E-5,0
IRIDIUM 161,2018-047C,2026-06-14T07:50:03.686784,14.43281564,.00025389,86.4483,89.6672,85.5993,274.5498,0,U,43478,999,42472,.79064601E-4,.286E-5,0
IRIDIUM 152,2018-047D,2026-06-14T19:11:14.269344,14.34217967,.0002332,86.3958,89.3305,83.7641,276.3820,0,U,43479,999,42214,.15082E-4,.62E-6,0
IRIDIUM 147,2018-047E,2026-06-14T21:00:50.279616,14.34217564,.000214,86.3960,89.3039,85.4853,274.6587,0,U,43480,999,42215,.82485E-6,.22E-6,0
IRIDIUM 110,2018-047F,2026-06-14T07:46:14.335392,14.34215722,.00026931,86.3962,89.6269,81.9507,278.1994,0,U,43481,999,42206,.23500858E-4,.86E-6,0
IRIDIUM 162,2018-047G,2026-06-14T20:59:41.500032,14.43280502,.0002285,86.4481,89.3290,82.6310,277.5150,0,U,43482,999,42479,.78108E-4,.283E-5,0
IRIDIUM 160,2018-061A,2026-06-14T09:49:10.505568,14.34217856,.00022739,86.3964,57.9590,85.6230,274.5226,0,U,43569,999,41297,.16648665E-4,.66E-6,0
IRIDIUM 166,2018-061B,2026-06-14T15:27:06.473952,14.34217856,.0002116,86.3964,57.8115,86.1692,273.9746,0,U,43570,999,41303,.13E-4,.56E-6,0
IRIDIUM 158,2018-061C,2026-06-14T14:41:26.498400,14.34217652,.0002208,86.3963,57.8346,81.8403,278.3043,0,U,43571,999,41299,.10068E-4,.48E-6,0
IRIDIUM 165,2018-061D,2026-06-14T18:38:54.376800,14.34217392,.0002067,86.3965,57.8121,86.3247,273.8186,0,U,43572,999,41304,.32662E-4,.111E-5,0
IRIDIUM 155,2018-061E,2026-06-14T16:03:38.479104,14.34217671,.0002122,86.3960,57.7262,82.1937,277.9500,0,U,43573,999,41299,.66168E-5,.38E-6,0
IRIDIUM 154,2018-061F,2026-06-14T18:57:10.192320,14.34219609,.0002107,86.3966,57.8095,87.4094,272.7343,0,U,43574,999,41306,.69686E-4,.215E-5,0
IRIDIUM 163,2018-061G,2026-06-14T18:29:46.036608,14.34216552,.0002273,86.3960,57.7327,83.7064,276.4390,0,U,43575,999,41303,.23084E-4,.84E-6,0
