IRIDIUM 138             
1 43071U 17083B   26165.66526727  .00000054  00000+0  12205-4 0  9997
2 43071  86.3975 322.7650 0002339  86.6816 273.4647 14.34218288443771
IRIDIUM 116             
1 43072U 17083C   26165.84286016  .00000041  00000+0  74592-5 0  9996
2 43072  86.3961 322.9816 0001934  97.4864 262.6552 14.34217887443832
IRIDIUM 130             
1 43073U 17083D   26165.67161001 -.00000004  00000+0 -86601-5 0  9999
2 43073  86.3968 323.3285 0001806  90.8842 269.2561 14.34217388443756
IRIDIUM 151             
1 43074U 17083E   26165.85554596  .00000027  00000+0  27000-5 0  9996
2 43074  86.3963 323.0340 0002147  92.5295 267.6147 14.34217715443803
IRIDIUM 134             
1 43075U 17083F   26165.82383227  .00000046  00000+0  92367-5 0  9994
2 43075  86.3965 323.0553 0002090  90.6186 269.5249 14.34218031443768
IRIDIUM 137             
1 43076U 17083G   26165.83651787  .00000043  00000+0  82317-5 0  9996
2 43076  86.3967 323.1427 0002193 103.7919 256.3521 14.34217898443831
IRIDIUM 141             
1 43077U 17083H   26165.83017552  .00000018  00000+0 -63155-6 0  9996
2 43077  86.3960 322.9761 0002208  90.9194 269.2255 14.34217732443836
IRIDIUM 153             
1 43078U 17083J   26165.85212316  .00000023  00000+0  13164-5 0  9993
2 43078  86.3958 291.4472 0002281  90.0877 270.0580 14.34217706444948
IRIDIUM 131             
1 43079U 17083K   26165.81748907  .00000118  00000+0  35113-4 0  9992
2 43079  86.3967 323.1673 0002212  92.1714 267.9735 14.34218662443760
IRIDIUM 144             
1 43249U 18030A   26165.85846416  .00000080  00000+0  21513-4 0  9999
2 43249  86.3957 291.3738 0002098  96.3021 263.8414 14.34218316429809
IRIDIUM 149             
1 43250U 18030B   26165.86480826 -.00000015  00000+0 -12277-4 0  9998
2 43250  86.3953 291.3383 0002128  93.5567 266.5872 14.34217389429820
IRIDIUM 157             
1 43251U 18030C   26165.81406727  .00000015  00000+0 -17838-5 0  9990
2 43251  86.3957 291.4124 0002193  93.9372 266.2075 14.34217697429799
IRIDIUM 140             
1 43252U 18030D   26165.83309513  .00000016  00000+0 -14204-5 0  9993
2 43252  86.3957 291.4170 0002137  93.0162 267.1278 14.34217603429856
IRIDIUM 145             
1 43253U 18030E   26165.82040931  .00000058  00000+0  13663-4 0  9991
2 43253  86.3956 291.3946 0001954 100.1476 259.9940 14.34217651429780
IRIDIUM 146             
1 43254U 18030F   26165.59207639  .00000025  00000+0  17174-5 0  9992
2 43254  86.3957 291.5024 0002097  96.3281 263.8154 14.34217727429763
IRIDIUM 148             
1 43255U 18030G   26165.83943794  .00000052  00000+0  11652-4 0  9993
2 43255  86.3958 291.4420 0002246  96.7150 263.4302 14.34217825429837
IRIDIUM 142             
1 43256U 18030H   26165.59841838  .00000161  00000+0  50300-4 0  9997
2 43256  86.3953 291.4318 0002068  97.7361 262.4070 14.34218067429768
IRIDIUM 150             
1 43257U 18030J   26165.84578038  .00000010  00000+0 -35335-5 0  9991
2 43257  86.3957 291.4446 0002135  93.3988 266.7452 14.34217566429828
IRIDIUM 143             
1 43258U 18030K   26165.82675209  .00000116  00000+0  34243-4 0  9990
2 43258  86.3961 291.5450 0002059  95.7652 264.3778 14.34217497429759
IRIDIUM 161             
1 43478U 18047C   26165.32643156  .00000286  00000+0  79065-4 0  9992
2 43478  86.4483  89.6672 0002538  85.5993 274.5498 14.43281564424722
IRIDIUM 152             
1 43479U 18047D   26165.79947071  .00000062  00000+0  15082-4 0  9998
2 43479  86.3958  89.3305 0002332  83.7641 276.3820 14.34217967422140
IRIDIUM 147             
1 43480U 18047E   26165.87558194  .00000022  00000+0  82485-6 0  9992
2 43480  86.3960  89.3039 0002140  85.4853 274.6587 14.34217564422155
IRIDIUM 110             
1 43481U 18047F   26165.32377703  .00000086  00000+0  23501-4 0  9990
2 43481  86.3962  89.6269 0002693  81.9507 278.1994 14.34215722422061
IRIDIUM 162             
1 43482U 18047G   26165.87478588  .00000283  00000+0  78108-4 0  9996
2 43482  86.4481  89.3290 0002285  82.6310 277.5150 14.43280502424794
IRIDIUM 160             
1 43569U 18061A   26165.40914937  .00000066  00000+0  16649-4 0  9991
2 43569  86.3964  57.9590 0002273  85.6230 274.5226 14.34217856412970
IRIDIUM 166             
1 43570U 18061B   26165.64382493  .00000056  00000+0  13000-4 0  9992
2 43570  86.3964  57.8115 0002116  86.1692 273.9746 14.34217856413036
IRIDIUM 158             
1 43571U 18061C   26165.61211225  .00000048  00000+0  10068-4 0  9996
2 43571  86.3963  57.8346 0002208  81.8403 278.3043 14.34217652412993
IRIDIUM 165             
1 43572U 18061D   26165.77701825  .00000111  00000+0  32662-4 0  9999
2 43572  86.3965  57.8121 0002067  86.3247 273.8186 14.34217392413042
IRIDIUM 155             
1 43573U 18061E   26165.66919536  .00000038  00000+0  66168-5 0  9995
2 43573  86.3960  57.7262 0002122  82.1937 277.9500 14.34217671412993
IRIDIUM 154             
1 43574U 18061F   26165.78970130  .00000215  00000+0  69686-4 0  9990
2 43574  86.3966  57.8095 0002107  87.4094 272.7343 14.34219609413060
IRIDIUM 163             
1 43575U 18061G   26165.77067172  .00000084  00000+0  23084-4 0  9999
2 43575  86.3960  57.7327 0002273  83.7064 276.4390 14.34216552413036
